<?xml version="1.0" encoding="UTF-8"?>
<kml xmlns="http://www.opengis.net/kml/2.2"><Document><name>Mile-Hi Eastern Carved Speed</name><description>Calculated training layout, not surveyed. WGS84. Entry heading 129.645627 degrees true, derived from supplied G1 endpoints, preserved exactly (10.014 m apart). Other gates are 10 m wide. Left carve; 53.48 m centerline radius, 75 degree arc, approximately 70 m; G1-G5 at 18.75 degree intervals. Coordinates have no measured elevation; clampToGround is display-only and does not define gate height or water elevation.</description><Style id="point"><IconStyle><color>ff00aaff</color><scale>0.8</scale></IconStyle></Style><Style id="line"><LineStyle><color>ff00ffff</color><width>3</width></LineStyle></Style><Folder><name>Gate endpoints</name><Placemark><name>G1 Inside</name><styleUrl>#point</styleUrl><Point><altitudeMode>clampToGround</altitudeMode><coordinates>-105.165305556,40.161744444,0</coordinates></Point></Placemark>
<Placemark><name>G1 Outside</name><styleUrl>#point</styleUrl><Point><altitudeMode>clampToGround</altitudeMode><coordinates>-105.165380556,40.161675000,0</coordinates></Point></Placemark>
<Placemark><name>G2 Inside</name><styleUrl>#point</styleUrl><Point><altitudeMode>clampToGround</altitudeMode><coordinates>-105.165145490,40.161672693,0</coordinates></Point></Placemark>
<Placemark><name>G2 Outside</name><styleUrl>#point</styleUrl><Point><altitudeMode>clampToGround</altitudeMode><coordinates>-105.165187356,40.161588556,0</coordinates></Point></Placemark>
<Placemark><name>G3 Inside</name><styleUrl>#point</styleUrl><Point><altitudeMode>clampToGround</altitudeMode><coordinates>-105.164963828,40.161644284,0</coordinates></Point></Placemark>
<Placemark><name>G3 Outside</name><styleUrl>#point</styleUrl><Point><altitudeMode>clampToGround</altitudeMode><coordinates>-105.164968223,40.161554288,0</coordinates></Point></Placemark>
<Placemark><name>G4 Inside</name><styleUrl>#point</styleUrl><Point><altitudeMode>clampToGround</altitudeMode><coordinates>-105.164779905,40.161662184,0</coordinates></Point></Placemark>
<Placemark><name>G4 Outside</name><styleUrl>#point</styleUrl><Point><altitudeMode>clampToGround</altitudeMode><coordinates>-105.164746362,40.161575880,0</coordinates></Point></Placemark>
<Placemark><name>G5 Inside</name><styleUrl>#point</styleUrl><Point><altitudeMode>clampToGround</altitudeMode><coordinates>-105.164613242,40.161724493,0</coordinates></Point></Placemark>
<Placemark><name>G5 Outside</name><styleUrl>#point</styleUrl><Point><altitudeMode>clampToGround</altitudeMode><coordinates>-105.164545321,40.161651042,0</coordinates></Point></Placemark></Folder><Folder><name>Gate centers</name><Placemark><name>G1 Center</name><styleUrl>#point</styleUrl><Point><altitudeMode>clampToGround</altitudeMode><coordinates>-105.165343056,40.161709722,0</coordinates></Point></Placemark>
<Placemark><name>G2 Center</name><styleUrl>#point</styleUrl><Point><altitudeMode>clampToGround</altitudeMode><coordinates>-105.165166423,40.161630625,0</coordinates></Point></Placemark>
<Placemark><name>G3 Center</name><styleUrl>#point</styleUrl><Point><altitudeMode>clampToGround</altitudeMode><coordinates>-105.164966025,40.161599286,0</coordinates></Point></Placemark>
<Placemark><name>G4 Center</name><styleUrl>#point</styleUrl><Point><altitudeMode>clampToGround</altitudeMode><coordinates>-105.164763134,40.161619032,0</coordinates></Point></Placemark>
<Placemark><name>G5 Center</name><styleUrl>#point</styleUrl><Point><altitudeMode>clampToGround</altitudeMode><coordinates>-105.164579282,40.161687768,0</coordinates></Point></Placemark></Folder><Folder><name>Gate lines</name><Placemark><name>G1 Gate</name><styleUrl>#line</styleUrl><LineString><altitudeMode>clampToGround</altitudeMode><coordinates>-105.165305556,40.161744444,0 -105.165380556,40.161675000,0</coordinates></LineString></Placemark>
<Placemark><name>G2 Gate</name><styleUrl>#line</styleUrl><LineString><altitudeMode>clampToGround</altitudeMode><coordinates>-105.165145490,40.161672693,0 -105.165187356,40.161588556,0</coordinates></LineString></Placemark>
<Placemark><name>G3 Gate</name><styleUrl>#line</styleUrl><LineString><altitudeMode>clampToGround</altitudeMode><coordinates>-105.164963828,40.161644284,0 -105.164968223,40.161554288,0</coordinates></LineString></Placemark>
<Placemark><name>G4 Gate</name><styleUrl>#line</styleUrl><LineString><altitudeMode>clampToGround</altitudeMode><coordinates>-105.164779905,40.161662184,0 -105.164746362,40.161575880,0</coordinates></LineString></Placemark>
<Placemark><name>G5 Gate</name><styleUrl>#line</styleUrl><LineString><altitudeMode>clampToGround</altitudeMode><coordinates>-105.164613242,40.161724493,0 -105.164545321,40.161651042,0</coordinates></LineString></Placemark></Folder><Folder><name>Course reference lines</name><Placemark><name>Inside boundary</name><styleUrl>#line</styleUrl><LineString><altitudeMode>clampToGround</altitudeMode><coordinates>-105.165305556,40.161744444,0 -105.165299842,40.161740778,0 -105.165294014,40.161737218,0 -105.165288126,40.161733718,0 -105.165282178,40.161730277,0 -105.165276173,40.161726896,0 -105.165270110,40.161723575,0 -105.165263991,40.161720316,0 -105.165257817,40.161717118,0 -105.165251589,40.161713983,0 -105.165245308,40.161710911,0 -105.165238975,40.161707901,0 -105.165232591,40.161704956,0 -105.165226158,40.161702075,0 -105.165219676,40.161699259,0 -105.165213146,40.161696508,0 -105.165206571,40.161693823,0 -105.165199949,40.161691205,0 -105.165193284,40.161688653,0 -105.165186576,40.161686168,0 -105.165179826,40.161683751,0 -105.165173036,40.161681402,0 -105.165166205,40.161679121,0 -105.165159337,40.161676909,0 -105.165152431,40.161674766,0 -105.165145490,40.161672693,0 -105.165138513,40.161670689,0 -105.165131504,40.161668756,0 -105.165124461,40.161666894,0 -105.165117388,40.161665102,0 -105.165110284,40.161663381,0 -105.165103152,40.161661732,0 -105.165095992,40.161660155,0 -105.165088806,40.161658650,0 -105.165081595,40.161657217,0 -105.165074360,40.161655856,0 -105.165067103,40.161654569,0 -105.165059824,40.161653354,0 -105.165052525,40.161652213,0 -105.165045207,40.161651145,0 -105.165037872,40.161650150,0 -105.165030520,40.161649229,0 -105.165023153,40.161648383,0 -105.165015773,40.161647610,0 -105.165008380,40.161646911,0 -105.165000975,40.161646287,0 -105.164993561,40.161645737,0 -105.164986138,40.161645262,0 -105.164978707,40.161644861,0 -105.164971270,40.161644535,0 -105.164963828,40.161644284,0 -105.164956383,40.161644107,0 -105.164948935,40.161644006,0 -105.164941486,40.161643979,0 -105.164934037,40.161644026,0 -105.164926590,40.161644149,0 -105.164919145,40.161644346,0 -105.164911705,40.161644619,0 -105.164904269,40.161644965,0 -105.164896841,40.161645387,0 -105.164889420,40.161645883,0 -105.164882008,40.161646453,0 -105.164874607,40.161647098,0 -105.164867217,40.161647818,0 -105.164859840,40.161648611,0 -105.164852477,40.161649478,0 -105.164845130,40.161650420,0 -105.164837799,40.161651435,0 -105.164830487,40.161652523,0 -105.164823193,40.161653685,0 -105.164815920,40.161654920,0 -105.164808669,40.161656228,0 -105.164801440,40.161657608,0 -105.164794236,40.161659061,0 -105.164787057,40.161660587,0 -105.164779905,40.161662184,0 -105.164772781,40.161663853,0 -105.164765686,40.161665593,0 -105.164758621,40.161667405,0 -105.164751587,40.161669287,0 -105.164744587,40.161671240,0 -105.164737620,40.161673263,0 -105.164730688,40.161675356,0 -105.164723793,40.161677518,0 -105.164716935,40.161679749,0 -105.164710116,40.161682049,0 -105.164703336,40.161684417,0 -105.164696598,40.161686853,0 -105.164689901,40.161689356,0 -105.164683248,40.161691927,0 -105.164676640,40.161694564,0 -105.164670077,40.161697267,0 -105.164663560,40.161700036,0 -105.164657092,40.161702871,0 -105.164650672,40.161705769,0 -105.164644302,40.161708733,0 -105.164637984,40.161711759,0 -105.164631718,40.161714849,0 -105.164625504,40.161718002,0 -105.164619346,40.161721217,0 -105.164613242,40.161724493,0</coordinates></LineString></Placemark>
<Placemark><name>Outside boundary</name><styleUrl>#line</styleUrl><LineString><altitudeMode>clampToGround</altitudeMode><coordinates>-105.165380556,40.161675000,0 -105.165373546,40.161670685,0 -105.165366516,40.161666392,0 -105.165359413,40.161662169,0 -105.165352239,40.161658018,0 -105.165344995,40.161653940,0 -105.165337681,40.161649934,0 -105.165330300,40.161646003,0 -105.165322853,40.161642146,0 -105.165315340,40.161638364,0 -105.165307763,40.161634657,0 -105.165300124,40.161631027,0 -105.165292424,40.161627475,0 -105.165284663,40.161623999,0 -105.165276844,40.161620603,0 -105.165268968,40.161617284,0 -105.165261036,40.161614046,0 -105.165253049,40.161610887,0 -105.165245009,40.161607809,0 -105.165236917,40.161604811,0 -105.165228775,40.161601895,0 -105.165220584,40.161599062,0 -105.165212345,40.161596310,0 -105.165204059,40.161593642,0 -105.165195729,40.161591057,0 -105.165187356,40.161588556,0 -105.165178941,40.161586140,0 -105.165170485,40.161583808,0 -105.165161990,40.161581561,0 -105.165153457,40.161579400,0 -105.165144889,40.161577324,0 -105.165136285,40.161575335,0 -105.165127649,40.161573432,0 -105.165118980,40.161571617,0 -105.165110282,40.161569888,0 -105.165101555,40.161568247,0 -105.165092800,40.161566694,0 -105.165084020,40.161565229,0 -105.165075215,40.161563852,0 -105.165066388,40.161562563,0 -105.165057540,40.161561364,0 -105.165048672,40.161560253,0 -105.165039785,40.161559232,0 -105.165030882,40.161558300,0 -105.165021964,40.161557457,0 -105.165013032,40.161556704,0 -105.165004088,40.161556041,0 -105.164995134,40.161555467,0 -105.164986171,40.161554984,0 -105.164977200,40.161554591,0 -105.164968223,40.161554288,0 -105.164959242,40.161554075,0 -105.164950258,40.161553952,0 -105.164941272,40.161553919,0 -105.164932287,40.161553977,0 -105.164923303,40.161554125,0 -105.164914323,40.161554363,0 -105.164905348,40.161554691,0 -105.164896379,40.161555110,0 -105.164887418,40.161555618,0 -105.164878466,40.161556216,0 -105.164869526,40.161556905,0 -105.164860597,40.161557683,0 -105.164851683,40.161558550,0 -105.164842785,40.161559507,0 -105.164833903,40.161560553,0 -105.164825041,40.161561689,0 -105.164816198,40.161562913,0 -105.164807377,40.161564226,0 -105.164798579,40.161565628,0 -105.164789806,40.161567117,0 -105.164781059,40.161568695,0 -105.164772339,40.161570360,0 -105.164763649,40.161572113,0 -105.164754989,40.161573953,0 -105.164746362,40.161575880,0 -105.164737768,40.161577893,0 -105.164729209,40.161579993,0 -105.164720687,40.161582178,0 -105.164712203,40.161584448,0 -105.164703758,40.161586804,0 -105.164695354,40.161589244,0 -105.164686993,40.161591768,0 -105.164678675,40.161594376,0 -105.164670403,40.161597068,0 -105.164662177,40.161599842,0 -105.164653999,40.161602699,0 -105.164645871,40.161605637,0 -105.164637793,40.161608657,0 -105.164629768,40.161611758,0 -105.164621796,40.161614939,0 -105.164613879,40.161618200,0 -105.164606019,40.161621540,0 -105.164598216,40.161624959,0 -105.164590472,40.161628456,0 -105.164582788,40.161632030,0 -105.164575167,40.161635681,0 -105.164567608,40.161639409,0 -105.164560113,40.161643212,0 -105.164552684,40.161647090,0 -105.164545321,40.161651042,0</coordinates></LineString></Placemark>
<Placemark><name>Course centerline</name><styleUrl>#line</styleUrl><LineString><altitudeMode>clampToGround</altitudeMode><coordinates>-105.165343056,40.161709722,0 -105.165336694,40.161705732,0 -105.165330265,40.161701805,0 -105.165323769,40.161697943,0 -105.165317209,40.161694147,0 -105.165310584,40.161690418,0 -105.165303896,40.161686755,0 -105.165297146,40.161683159,0 -105.165290335,40.161679632,0 -105.165283464,40.161676173,0 -105.165276536,40.161672784,0 -105.165269550,40.161669464,0 -105.165262508,40.161666215,0 -105.165255411,40.161663037,0 -105.165248260,40.161659931,0 -105.165241057,40.161656896,0 -105.165233803,40.161653935,0 -105.165226499,40.161651046,0 -105.165219147,40.161648231,0 -105.165211747,40.161645490,0 -105.165204301,40.161642823,0 -105.165196810,40.161640232,0 -105.165189275,40.161637716,0 -105.165181698,40.161635276,0 -105.165174080,40.161632912,0 -105.165166423,40.161630625,0 -105.165158727,40.161628415,0 -105.165150994,40.161626282,0 -105.165143226,40.161624227,0 -105.165135423,40.161622251,0 -105.165127586,40.161620353,0 -105.165119719,40.161618534,0 -105.165111821,40.161616794,0 -105.165103893,40.161615133,0 -105.165095939,40.161613552,0 -105.165087958,40.161612052,0 -105.165079952,40.161610631,0 -105.165071922,40.161609291,0 -105.165063870,40.161608032,0 -105.165055798,40.161606854,0 -105.165047706,40.161605757,0 -105.165039596,40.161604741,0 -105.165031469,40.161603807,0 -105.165023327,40.161602955,0 -105.165015172,40.161602184,0 -105.165007004,40.161601496,0 -105.164998825,40.161600889,0 -105.164990636,40.161600365,0 -105.164982439,40.161599923,0 -105.164974235,40.161599563,0 -105.164966025,40.161599286,0 -105.164957812,40.161599091,0 -105.164949596,40.161598979,0 -105.164941379,40.161598949,0 -105.164933162,40.161599002,0 -105.164924947,40.161599137,0 -105.164916734,40.161599355,0 -105.164908526,40.161599655,0 -105.164900324,40.161600037,0 -105.164892129,40.161600502,0 -105.164883943,40.161601050,0 -105.164875767,40.161601679,0 -105.164867602,40.161602390,0 -105.164859450,40.161603184,0 -105.164851312,40.161604059,0 -105.164843190,40.161605016,0 -105.164835085,40.161606054,0 -105.164826999,40.161607174,0 -105.164818932,40.161608375,0 -105.164810886,40.161609656,0 -105.164802863,40.161611019,0 -105.164794864,40.161612461,0 -105.164786890,40.161613984,0 -105.164778943,40.161615587,0 -105.164771023,40.161617270,0 -105.164763134,40.161619032,0 -105.164755274,40.161620873,0 -105.164747447,40.161622793,0 -105.164739654,40.161624791,0 -105.164731895,40.161626868,0 -105.164724172,40.161629022,0 -105.164716487,40.161631253,0 -105.164708840,40.161633562,0 -105.164701234,40.161635947,0 -105.164693669,40.161638408,0 -105.164686146,40.161640945,0 -105.164678668,40.161643558,0 -105.164671234,40.161646245,0 -105.164663847,40.161649007,0 -105.164656508,40.161651843,0 -105.164649218,40.161654752,0 -105.164641978,40.161657734,0 -105.164634789,40.161660788,0 -105.164627654,40.161663915,0 -105.164620572,40.161667113,0 -105.164613545,40.161670381,0 -105.164606575,40.161673720,0 -105.164599663,40.161677129,0 -105.164592809,40.161680607,0 -105.164586015,40.161684153,0 -105.164579282,40.161687768,0</coordinates></LineString></Placemark></Folder></Document></kml>
