<?xml version="1.0" encoding="UTF-8"?>
<kml xmlns="http://www.opengis.net/kml/2.2"><Document><name>Mile-Hi Eastern Drag Distance</name><description>Calculated training layout, not surveyed. WGS84. Entry heading 129.645627 degrees true, derived from supplied G1 endpoints, preserved exactly (10.014 m apart). Other gates are 10 m wide. Drag Distance: G1 and G5 50 m apart. Boundaries depict only the first 50 m; the distance landing course continues beyond G5. No terminal landing boundary is specified. Coordinates have no measured elevation; clampToGround is display-only and does not define gate height or water elevation.</description><Style id="point"><IconStyle><color>ff00aaff</color><scale>0.8</scale></IconStyle></Style><Style id="line"><LineStyle><color>ff00aa00</color><width>3</width></LineStyle></Style><Folder><name>Gate endpoints</name><Placemark><name>G1 Inside</name><styleUrl>#point</styleUrl><Point><altitudeMode>clampToGround</altitudeMode><coordinates>-105.165305556,40.161744444,0</coordinates></Point></Placemark>
<Placemark><name>G1 Outside</name><styleUrl>#point</styleUrl><Point><altitudeMode>clampToGround</altitudeMode><coordinates>-105.165380556,40.161675000,0</coordinates></Point></Placemark>
<Placemark><name>G5 Inside</name><styleUrl>#point</styleUrl><Point><altitudeMode>clampToGround</altitudeMode><coordinates>-105.164853685,40.161457089,0</coordinates></Point></Placemark>
<Placemark><name>G5 Outside</name><styleUrl>#point</styleUrl><Point><altitudeMode>clampToGround</altitudeMode><coordinates>-105.164928579,40.161387743,0</coordinates></Point></Placemark></Folder><Folder><name>Gate centers</name><Placemark><name>G1 Center</name><styleUrl>#point</styleUrl><Point><altitudeMode>clampToGround</altitudeMode><coordinates>-105.165343056,40.161709722,0</coordinates></Point></Placemark>
<Placemark><name>G5 Center</name><styleUrl>#point</styleUrl><Point><altitudeMode>clampToGround</altitudeMode><coordinates>-105.164891132,40.161422416,0</coordinates></Point></Placemark></Folder><Folder><name>Gate lines</name><Placemark><name>G1 Gate</name><styleUrl>#line</styleUrl><LineString><altitudeMode>clampToGround</altitudeMode><coordinates>-105.165305556,40.161744444,0 -105.165380556,40.161675000,0</coordinates></LineString></Placemark>
<Placemark><name>G5 Gate</name><styleUrl>#line</styleUrl><LineString><altitudeMode>clampToGround</altitudeMode><coordinates>-105.164853685,40.161457089,0 -105.164928579,40.161387743,0</coordinates></LineString></Placemark></Folder><Folder><name>Course reference lines</name><Placemark><name>Inside boundary</name><styleUrl>#line</styleUrl><LineString><altitudeMode>clampToGround</altitudeMode><coordinates>-105.165305556,40.161744444,0 -105.165301089,40.161741522,0 -105.165296570,40.161738649,0 -105.165292051,40.161735776,0 -105.165287532,40.161732903,0 -105.165283012,40.161730030,0 -105.165278493,40.161727157,0 -105.165273974,40.161724284,0 -105.165269455,40.161721411,0 -105.165264935,40.161718538,0 -105.165260416,40.161715665,0 -105.165255897,40.161712792,0 -105.165251378,40.161709919,0 -105.165246859,40.161707046,0 -105.165242339,40.161704172,0 -105.165237820,40.161701299,0 -105.165233301,40.161698426,0 -105.165228782,40.161695553,0 -105.165224262,40.161692680,0 -105.165219743,40.161689807,0 -105.165215224,40.161686934,0 -105.165210705,40.161684061,0 -105.165206185,40.161681188,0 -105.165201666,40.161678315,0 -105.165197147,40.161675442,0 -105.165192628,40.161672569,0 -105.165188109,40.161669696,0 -105.165183589,40.161666823,0 -105.165179070,40.161663950,0 -105.165174551,40.161661076,0 -105.165170032,40.161658203,0 -105.165165512,40.161655330,0 -105.165160993,40.161652457,0 -105.165156474,40.161649584,0 -105.165151955,40.161646711,0 -105.165147435,40.161643838,0 -105.165142916,40.161640965,0 -105.165138397,40.161638092,0 -105.165133878,40.161635219,0 -105.165129359,40.161632346,0 -105.165124839,40.161629473,0 -105.165120320,40.161626600,0 -105.165115801,40.161623727,0 -105.165111282,40.161620854,0 -105.165106762,40.161617980,0 -105.165102243,40.161615107,0 -105.165097724,40.161612234,0 -105.165093205,40.161609361,0 -105.165088685,40.161606488,0 -105.165084166,40.161603615,0 -105.165079647,40.161600742,0 -105.165075128,40.161597869,0 -105.165070609,40.161594996,0 -105.165066089,40.161592123,0 -105.165061570,40.161589250,0 -105.165057051,40.161586377,0 -105.165052532,40.161583504,0 -105.165048012,40.161580631,0 -105.165043493,40.161577758,0 -105.165038974,40.161574885,0 -105.165034455,40.161572011,0 -105.165029935,40.161569138,0 -105.165025416,40.161566265,0 -105.165020897,40.161563392,0 -105.165016378,40.161560519,0 -105.165011859,40.161557646,0 -105.165007339,40.161554773,0 -105.165002820,40.161551900,0 -105.164998301,40.161549027,0 -105.164993782,40.161546154,0 -105.164989262,40.161543281,0 -105.164984743,40.161540408,0 -105.164980224,40.161537535,0 -105.164975705,40.161534662,0 -105.164971185,40.161531789,0 -105.164966666,40.161528915,0 -105.164962147,40.161526042,0 -105.164957628,40.161523169,0 -105.164953109,40.161520296,0 -105.164948589,40.161517423,0 -105.164944070,40.161514550,0 -105.164939551,40.161511677,0 -105.164935032,40.161508804,0 -105.164930512,40.161505931,0 -105.164925993,40.161503058,0 -105.164921474,40.161500185,0 -105.164916955,40.161497312,0 -105.164912435,40.161494439,0 -105.164907916,40.161491566,0 -105.164903397,40.161488693,0 -105.164898878,40.161485819,0 -105.164894359,40.161482946,0 -105.164889839,40.161480073,0 -105.164885320,40.161477200,0 -105.164880801,40.161474327,0 -105.164876282,40.161471454,0 -105.164871762,40.161468581,0 -105.164867243,40.161465708,0 -105.164862724,40.161462835,0 -105.164858205,40.161459962,0 -105.164853685,40.161457089,0</coordinates></LineString></Placemark>
<Placemark><name>Outside boundary</name><styleUrl>#line</styleUrl><LineString><altitudeMode>clampToGround</altitudeMode><coordinates>-105.165380556,40.161675000,0 -105.165375983,40.161672176,0 -105.165371464,40.161669303,0 -105.165366945,40.161666430,0 -105.165362426,40.161663557,0 -105.165357906,40.161660684,0 -105.165353387,40.161657811,0 -105.165348868,40.161654938,0 -105.165344349,40.161652065,0 -105.165339829,40.161649191,0 -105.165335310,40.161646318,0 -105.165330791,40.161643445,0 -105.165326272,40.161640572,0 -105.165321753,40.161637699,0 -105.165317233,40.161634826,0 -105.165312714,40.161631953,0 -105.165308195,40.161629080,0 -105.165303676,40.161626207,0 -105.165299156,40.161623334,0 -105.165294637,40.161620461,0 -105.165290118,40.161617588,0 -105.165285599,40.161614715,0 -105.165281079,40.161611842,0 -105.165276560,40.161608969,0 -105.165272041,40.161606096,0 -105.165267522,40.161603222,0 -105.165263003,40.161600349,0 -105.165258483,40.161597476,0 -105.165253964,40.161594603,0 -105.165249445,40.161591730,0 -105.165244926,40.161588857,0 -105.165240406,40.161585984,0 -105.165235887,40.161583111,0 -105.165231368,40.161580238,0 -105.165226849,40.161577365,0 -105.165222329,40.161574492,0 -105.165217810,40.161571619,0 -105.165213291,40.161568746,0 -105.165208772,40.161565873,0 -105.165204253,40.161563000,0 -105.165199733,40.161560126,0 -105.165195214,40.161557253,0 -105.165190695,40.161554380,0 -105.165186176,40.161551507,0 -105.165181656,40.161548634,0 -105.165177137,40.161545761,0 -105.165172618,40.161542888,0 -105.165168099,40.161540015,0 -105.165163579,40.161537142,0 -105.165159060,40.161534269,0 -105.165154541,40.161531396,0 -105.165150022,40.161528523,0 -105.165145503,40.161525650,0 -105.165140983,40.161522777,0 -105.165136464,40.161519904,0 -105.165131945,40.161517030,0 -105.165127426,40.161514157,0 -105.165122906,40.161511284,0 -105.165118387,40.161508411,0 -105.165113868,40.161505538,0 -105.165109349,40.161502665,0 -105.165104829,40.161499792,0 -105.165100310,40.161496919,0 -105.165095791,40.161494046,0 -105.165091272,40.161491173,0 -105.165086753,40.161488300,0 -105.165082233,40.161485427,0 -105.165077714,40.161482554,0 -105.165073195,40.161479681,0 -105.165068676,40.161476808,0 -105.165064156,40.161473935,0 -105.165059637,40.161471061,0 -105.165055118,40.161468188,0 -105.165050599,40.161465315,0 -105.165046079,40.161462442,0 -105.165041560,40.161459569,0 -105.165037041,40.161456696,0 -105.165032522,40.161453823,0 -105.165028003,40.161450950,0 -105.165023483,40.161448077,0 -105.165018964,40.161445204,0 -105.165014445,40.161442331,0 -105.165009926,40.161439458,0 -105.165005406,40.161436585,0 -105.165000887,40.161433712,0 -105.164996368,40.161430839,0 -105.164991849,40.161427965,0 -105.164987329,40.161425092,0 -105.164982810,40.161422219,0 -105.164978291,40.161419346,0 -105.164973772,40.161416473,0 -105.164969253,40.161413600,0 -105.164964733,40.161410727,0 -105.164960214,40.161407854,0 -105.164955695,40.161404981,0 -105.164951176,40.161402108,0 -105.164946656,40.161399235,0 -105.164942137,40.161396362,0 -105.164937618,40.161393489,0 -105.164933099,40.161390616,0 -105.164928579,40.161387743,0</coordinates></LineString></Placemark>
<Placemark><name>Course centerline</name><styleUrl>#line</styleUrl><LineString><altitudeMode>clampToGround</altitudeMode><coordinates>-105.165343056,40.161709722,0 -105.165338536,40.161706849,0 -105.165334017,40.161703976,0 -105.165329498,40.161701103,0 -105.165324979,40.161698230,0 -105.165320459,40.161695357,0 -105.165315940,40.161692484,0 -105.165311421,40.161689611,0 -105.165306902,40.161686738,0 -105.165302382,40.161683865,0 -105.165297863,40.161680992,0 -105.165293344,40.161678119,0 -105.165288825,40.161675245,0 -105.165284306,40.161672372,0 -105.165279786,40.161669499,0 -105.165275267,40.161666626,0 -105.165270748,40.161663753,0 -105.165266229,40.161660880,0 -105.165261709,40.161658007,0 -105.165257190,40.161655134,0 -105.165252671,40.161652261,0 -105.165248152,40.161649388,0 -105.165243632,40.161646515,0 -105.165239113,40.161643642,0 -105.165234594,40.161640769,0 -105.165230075,40.161637896,0 -105.165225556,40.161635023,0 -105.165221036,40.161632149,0 -105.165216517,40.161629276,0 -105.165211998,40.161626403,0 -105.165207479,40.161623530,0 -105.165202959,40.161620657,0 -105.165198440,40.161617784,0 -105.165193921,40.161614911,0 -105.165189402,40.161612038,0 -105.165184882,40.161609165,0 -105.165180363,40.161606292,0 -105.165175844,40.161603419,0 -105.165171325,40.161600546,0 -105.165166806,40.161597673,0 -105.165162286,40.161594800,0 -105.165157767,40.161591927,0 -105.165153248,40.161589053,0 -105.165148729,40.161586180,0 -105.165144209,40.161583307,0 -105.165139690,40.161580434,0 -105.165135171,40.161577561,0 -105.165130652,40.161574688,0 -105.165126132,40.161571815,0 -105.165121613,40.161568942,0 -105.165117094,40.161566069,0 -105.165112575,40.161563196,0 -105.165108056,40.161560323,0 -105.165103536,40.161557450,0 -105.165099017,40.161554577,0 -105.165094498,40.161551704,0 -105.165089979,40.161548831,0 -105.165085459,40.161545957,0 -105.165080940,40.161543084,0 -105.165076421,40.161540211,0 -105.165071902,40.161537338,0 -105.165067382,40.161534465,0 -105.165062863,40.161531592,0 -105.165058344,40.161528719,0 -105.165053825,40.161525846,0 -105.165049306,40.161522973,0 -105.165044786,40.161520100,0 -105.165040267,40.161517227,0 -105.165035748,40.161514354,0 -105.165031229,40.161511481,0 -105.165026709,40.161508608,0 -105.165022190,40.161505735,0 -105.165017671,40.161502862,0 -105.165013152,40.161499988,0 -105.165008632,40.161497115,0 -105.165004113,40.161494242,0 -105.164999594,40.161491369,0 -105.164995075,40.161488496,0 -105.164990556,40.161485623,0 -105.164986036,40.161482750,0 -105.164981517,40.161479877,0 -105.164976998,40.161477004,0 -105.164972479,40.161474131,0 -105.164967959,40.161471258,0 -105.164963440,40.161468385,0 -105.164958921,40.161465512,0 -105.164954402,40.161462639,0 -105.164949882,40.161459766,0 -105.164945363,40.161456892,0 -105.164940844,40.161454019,0 -105.164936325,40.161451146,0 -105.164931806,40.161448273,0 -105.164927286,40.161445400,0 -105.164922767,40.161442527,0 -105.164918248,40.161439654,0 -105.164913729,40.161436781,0 -105.164909209,40.161433908,0 -105.164904690,40.161431035,0 -105.164900171,40.161428162,0 -105.164895652,40.161425289,0 -105.164891132,40.161422416,0</coordinates></LineString></Placemark></Folder></Document></kml>
